[{"OBJECT_NAME":"STARLINK-2634","OBJECT_ID":"2021-040T","EPOCH":"2026-03-09T21:39:54.086976","MEAN_MOTION":15.30209502,"ECCENTRICITY":0.00012058,"INCLINATION":53.16,"RA_OF_ASC_NODE":177.1427,"ARG_OF_PERICENTER":73.806,"MEAN_ANOMALY":286.3073,"EPHEMERIS_TYPE":0,"CLASSIFICATION_TYPE":"U","NORAD_CAT_ID":48445,"ELEMENT_SET_NO":999,"REV_AT_EPOCH":26671,"BSTAR":0.00026697441,"MEAN_MOTION_DOT":7.558e-5,"MEAN_MOTION_DDOT":0},{"OBJECT_NAME":"YAOGAN-36 02B","OBJECT_ID":"2022-133B","EPOCH":"2026-03-09T22:42:31.775904","MEAN_MOTION":15.30199518,"ECCENTRICITY":0.00056841,"INCLINATION":34.9983,"RA_OF_ASC_NODE":22.5268,"ARG_OF_PERICENTER":273.0351,"MEAN_ANOMALY":86.9715,"EPHEMERIS_TYPE":0,"CLASSIFICATION_TYPE":"U","NORAD_CAT_ID":54043,"ELEMENT_SET_NO":999,"REV_AT_EPOCH":18962,"BSTAR":0.00051218814,"MEAN_MOTION_DOT":0.00015352,"MEAN_MOTION_DDOT":0}]
